FLOCK 4H-16             
1 66719U 25276BF  26199.16439898  .00003358  00000+0  15830-3 0  9994
2 66719  97.4221 272.2556 0002934 240.6297 119.4646 15.20170696 35122
FLOCK 4H-18             
1 66721U 25276BH  26199.17068038  .00003393  00000+0  16016-3 0  9998
2 66721  97.4163 272.0729 0002202 273.6209  86.4774 15.20113299 35128
FLOCK 4H-19             
1 66722U 25276BJ  26199.16762327  .00002840  00000+0  13004-3 0  9990
2 66722  97.4166 272.5378 0002598 143.0384 217.1031 15.21302616 34446
FLOCK 4H-20             
1 66723U 25276BK  26199.16945226  .00003289  00000+0  14941-3 0  9991
2 66723  97.4201 272.6478 0003180 162.6041 197.5304 15.21466398 34402
FLOCK 4H-21             
1 66724U 25276BL  26199.13583532  .00003195  00000+0  14697-3 0  9991
2 66724  97.4170 272.4354 0002969 161.7369 198.3974 15.21049707 34397
FLOCK 4H-22             
1 66725U 25276BM  26199.18137026  .00003383  00000+0  15774-3 0  9996
2 66725  97.4158 272.1885 0001018 269.3201  90.7917 15.20545645 35130
FLOCK 4H-23             
1 66726U 25276BN  26199.17006004  .00003355  00000+0  15855-3 0  9996
2 66726  97.4227 272.2626 0003204 229.6178 130.4777 15.20091509 35123
FLOCK 4H-24             
1 66727U 25276BP  26199.15463225  .00003679  00000+0  17300-3 0  9993
2 66727  97.4222 272.2765 0002517 249.4486 110.6479 15.20201525 35121
FLOCK 4H-25             
1 66728U 25276BQ  26199.15447322  .00003781  00000+0  17379-3 0  9994
2 66728  97.4179 272.4453 0001987 125.5001 234.6420 15.20968040 34423
FLOCK 4H-26             
1 66729U 25276BR  26199.18860412  .00003145  00000+0  14950-3 0  9993
2 66729  97.4178 272.0887 0003311 250.3758 109.7120 15.19924620 35120
FLOCK 4H-27             
1 66730U 25276BS  26199.18543196  .00003145  00000+0  14585-3 0  9996
2 66730  97.4155 272.3273 0001665 126.0545 234.0845 15.20790855 35143
FLOCK 4H-29             
1 66732U 25276BU  26199.16785813  .00003404  00000+0  16090-3 0  9991
2 66732  97.4156 272.0507 0001726 263.1012  97.0026 15.20064708 35120
FLOCK 4H-30             
1 66733U 25276BV  26199.15952129  .00003777  00000+0  17758-3 0  9992
2 66733  97.4218 272.2528 0002758 249.3208 110.7732 15.20187492 35127
FLOCK 4H-31             
1 66734U 25276BW  26199.18093655  .00002944  00000+0  14004-3 0  9992
2 66734  97.4155 272.0302 0002119 259.4538 100.6458 15.19961496 35120
FLOCK 4H-32             
1 66735U 25276BX  26199.16860928  .00003258  00000+0  15409-3 0  9995
2 66735  97.4211 272.2170 0003176 246.5173 113.5728 15.20081540 35123
FLOCK 4H-33             
1 66736U 25276BY  26199.19036198  .00003024  00000+0  13863-3 0  9996
2 66736  97.4208 272.6365 0002954 154.6901 205.4480 15.21209532 35154
