{"fetched_at":"2026-07-18T17:29:33.240Z","source":"https://celestrak.org/NORAD/elements/gp.php?GROUP=planet&FORMAT=JSON","constellation":"superdove","records":[{"OBJECT_NAME":"FLOCK 4H-16","OBJECT_ID":"2025-276BF","EPOCH":"2026-07-18T03:56:44.071872","CLASSIFICATION_TYPE":"U","MEAN_MOTION":15.20170696,"ECCENTRICITY":0.00029346,"INCLINATION":97.4221,"RA_OF_ASC_NODE":272.2556,"ARG_OF_PERICENTER":240.6297,"MEAN_ANOMALY":119.4646,"EPHEMERIS_TYPE":0,"NORAD_CAT_ID":66719,"ELEMENT_SET_NO":999,"REV_AT_EPOCH":3512,"BSTAR":0.00015829963,"MEAN_MOTION_DOT":0.00003358,"MEAN_MOTION_DDOT":0},{"OBJECT_NAME":"FLOCK 4H-18","OBJECT_ID":"2025-276BH","EPOCH":"2026-07-18T04:05:46.784832","CLASSIFICATION_TYPE":"U","MEAN_MOTION":15.20113299,"ECCENTRICITY":0.00022026,"INCLINATION":97.4163,"RA_OF_ASC_NODE":272.0729,"ARG_OF_PERICENTER":273.6209,"MEAN_ANOMALY":86.4774,"EPHEMERIS_TYPE":0,"NORAD_CAT_ID":66721,"ELEMENT_SET_NO":999,"REV_AT_EPOCH":3512,"BSTAR":0.00016016395,"MEAN_MOTION_DOT":0.00003393,"MEAN_MOTION_DDOT":0},{"OBJECT_NAME":"FLOCK 4H-19","OBJECT_ID":"2025-276BJ","EPOCH":"2026-07-18T04:01:22.650528","CLASSIFICATION_TYPE":"U","MEAN_MOTION":15.21302616,"ECCENTRICITY":0.00025984,"INCLINATION":97.4166,"RA_OF_ASC_NODE":272.5378,"ARG_OF_PERICENTER":143.0384,"MEAN_ANOMALY":217.1031,"EPHEMERIS_TYPE":0,"NORAD_CAT_ID":66722,"ELEMENT_SET_NO":999,"REV_AT_EPOCH":3444,"BSTAR":0.00013003546,"MEAN_MOTION_DOT":0.0000284,"MEAN_MOTION_DDOT":0},{"OBJECT_NAME":"FLOCK 4H-20","OBJECT_ID":"2025-276BK","EPOCH":"2026-07-18T04:04:00.675264","CLASSIFICATION_TYPE":"U","MEAN_MOTION":15.21466398,"ECCENTRICITY":0.00031804,"INCLINATION":97.4201,"RA_OF_ASC_NODE":272.6478,"ARG_OF_PERICENTER":162.6041,"MEAN_ANOMALY":197.5304,"EPHEMERIS_TYPE":0,"NORAD_CAT_ID":66723,"ELEMENT_SET_NO":999,"REV_AT_EPOCH":3440,"BSTAR":0.00014940844,"MEAN_MOTION_DOT":0.00003289,"MEAN_MOTION_DDOT":0},{"OBJECT_NAME":"FLOCK 4H-21","OBJECT_ID":"2025-276BL","EPOCH":"2026-07-18T03:15:36.171648","CLASSIFICATION_TYPE":"U","MEAN_MOTION":15.21049707,"ECCENTRICITY":0.00029694,"INCLINATION":97.417,"RA_OF_ASC_NODE":272.4354,"ARG_OF_PERICENTER":161.7369,"MEAN_ANOMALY":198.3974,"EPHEMERIS_TYPE":0,"NORAD_CAT_ID":66724,"ELEMENT_SET_NO":999,"REV_AT_EPOCH":3439,"BSTAR":0.00014697394,"MEAN_MOTION_DOT":0.00003195,"MEAN_MOTION_DDOT":0},{"OBJECT_NAME":"FLOCK 4H-22","OBJECT_ID":"2025-276BM","EPOCH":"2026-07-18T04:21:10.390464","CLASSIFICATION_TYPE":"U","MEAN_MOTION":15.20545645,"ECCENTRICITY":0.00010183,"INCLINATION":97.4158,"RA_OF_ASC_NODE":272.1885,"ARG_OF_PERICENTER":269.3201,"MEAN_ANOMALY":90.7917,"EPHEMERIS_TYPE":0,"NORAD_CAT_ID":66725,"ELEMENT_SET_NO":999,"REV_AT_EPOCH":3513,"BSTAR":0.00015774202,"MEAN_MOTION_DOT":0.00003383,"MEAN_MOTION_DDOT":0},{"OBJECT_NAME":"FLOCK 4H-23","OBJECT_ID":"2025-276BN","EPOCH":"2026-07-18T04:04:53.187456","CLASSIFICATION_TYPE":"U","MEAN_MOTION":15.20091509,"ECCENTRICITY":0.0003204,"INCLINATION":97.4227,"RA_OF_ASC_NODE":272.2626,"ARG_OF_PERICENTER":229.6178,"MEAN_ANOMALY":130.4777,"EPHEMERIS_TYPE":0,"NORAD_CAT_ID":66726,"ELEMENT_SET_NO":999,"REV_AT_EPOCH":3512,"BSTAR":0.00015854692,"MEAN_MOTION_DOT":0.00003355,"MEAN_MOTION_DDOT":0},{"OBJECT_NAME":"FLOCK 4H-24","OBJECT_ID":"2025-276BP","EPOCH":"2026-07-18T03:42:40.226400","CLASSIFICATION_TYPE":"U","MEAN_MOTION":15.20201525,"ECCENTRICITY":0.00025175,"INCLINATION":97.4222,"RA_OF_ASC_NODE":272.2765,"ARG_OF_PERICENTER":249.4486,"MEAN_ANOMALY":110.6479,"EPHEMERIS_TYPE":0,"NORAD_CAT_ID":66727,"ELEMENT_SET_NO":999,"REV_AT_EPOCH":3512,"BSTAR":0.00017299739,"MEAN_MOTION_DOT":0.00003679,"MEAN_MOTION_DDOT":0},{"OBJECT_NAME":"FLOCK 4H-25","OBJECT_ID":"2025-276BQ","EPOCH":"2026-07-18T03:42:26.486208","CLASSIFICATION_TYPE":"U","MEAN_MOTION":15.2096804,"ECCENTRICITY":0.00019877,"INCLINATION":97.4179,"RA_OF_ASC_NODE":272.4453,"ARG_OF_PERICENTER":125.5001,"MEAN_ANOMALY":234.642,"EPHEMERIS_TYPE":0,"NORAD_CAT_ID":66728,"ELEMENT_SET_NO":999,"REV_AT_EPOCH":3442,"BSTAR":0.00017379023,"MEAN_MOTION_DOT":0.00003781,"MEAN_MOTION_DDOT":0},{"OBJECT_NAME":"FLOCK 4H-26","OBJECT_ID":"2025-276BR","EPOCH":"2026-07-18T04:31:35.395968","CLASSIFICATION_TYPE":"U","MEAN_MOTION":15.1992462,"ECCENTRICITY":0.00033111,"INCLINATION":97.4178,"RA_OF_ASC_NODE":272.0887,"ARG_OF_PERICENTER":250.3758,"MEAN_ANOMALY":109.712,"EPHEMERIS_TYPE":0,"NORAD_CAT_ID":66729,"ELEMENT_SET_NO":999,"REV_AT_EPOCH":3512,"BSTAR":0.00014950185,"MEAN_MOTION_DOT":0.00003145,"MEAN_MOTION_DDOT":0},{"OBJECT_NAME":"FLOCK 4H-27","OBJECT_ID":"2025-276BS","EPOCH":"2026-07-18T04:27:01.321344","CLASSIFICATION_TYPE":"U","MEAN_MOTION":15.20790855,"ECCENTRICITY":0.00016657,"INCLINATION":97.4155,"RA_OF_ASC_NODE":272.3273,"ARG_OF_PERICENTER":126.0545,"MEAN_ANOMALY":234.0845,"EPHEMERIS_TYPE":0,"NORAD_CAT_ID":66730,"ELEMENT_SET_NO":999,"REV_AT_EPOCH":3514,"BSTAR":0.0001458517,"MEAN_MOTION_DOT":0.00003145,"MEAN_MOTION_DDOT":0},{"OBJECT_NAME":"FLOCK 4H-29","OBJECT_ID":"2025-276BU","EPOCH":"2026-07-18T04:01:42.942432","CLASSIFICATION_TYPE":"U","MEAN_MOTION":15.20064708,"ECCENTRICITY":0.00017266,"INCLINATION":97.4156,"RA_OF_ASC_NODE":272.0507,"ARG_OF_PERICENTER":263.1012,"MEAN_ANOMALY":97.0026,"EPHEMERIS_TYPE":0,"NORAD_CAT_ID":66732,"ELEMENT_SET_NO":999,"REV_AT_EPOCH":3512,"BSTAR":0.0001608973,"MEAN_MOTION_DOT":0.00003404,"MEAN_MOTION_DDOT":0},{"OBJECT_NAME":"FLOCK 4H-30","OBJECT_ID":"2025-276BV","EPOCH":"2026-07-18T03:49:42.639456","CLASSIFICATION_TYPE":"U","MEAN_MOTION":15.20187492,"ECCENTRICITY":0.00027581,"INCLINATION":97.4218,"RA_OF_ASC_NODE":272.2528,"ARG_OF_PERICENTER":249.3208,"MEAN_ANOMALY":110.7732,"EPHEMERIS_TYPE":0,"NORAD_CAT_ID":66733,"ELEMENT_SET_NO":999,"REV_AT_EPOCH":3512,"BSTAR":0.00017757933,"MEAN_MOTION_DOT":0.00003777,"MEAN_MOTION_DDOT":0},{"OBJECT_NAME":"FLOCK 4H-31","OBJECT_ID":"2025-276BW","EPOCH":"2026-07-18T04:20:32.917920","CLASSIFICATION_TYPE":"U","MEAN_MOTION":15.19961496,"ECCENTRICITY":0.00021198,"INCLINATION":97.4155,"RA_OF_ASC_NODE":272.0302,"ARG_OF_PERICENTER":259.4538,"MEAN_ANOMALY":100.6458,"EPHEMERIS_TYPE":0,"NORAD_CAT_ID":66734,"ELEMENT_SET_NO":999,"REV_AT_EPOCH":3512,"BSTAR":0.00014003794,"MEAN_MOTION_DOT":0.00002944,"MEAN_MOTION_DDOT":0},{"OBJECT_NAME":"FLOCK 4H-32","OBJECT_ID":"2025-276BX","EPOCH":"2026-07-18T04:02:47.841792","CLASSIFICATION_TYPE":"U","MEAN_MOTION":15.2008154,"ECCENTRICITY":0.00031767,"INCLINATION":97.4211,"RA_OF_ASC_NODE":272.217,"ARG_OF_PERICENTER":246.5173,"MEAN_ANOMALY":113.5728,"EPHEMERIS_TYPE":0,"NORAD_CAT_ID":66735,"ELEMENT_SET_NO":999,"REV_AT_EPOCH":3512,"BSTAR":0.00015409405,"MEAN_MOTION_DOT":0.00003258,"MEAN_MOTION_DDOT":0},{"OBJECT_NAME":"FLOCK 4H-33","OBJECT_ID":"2025-276BY","EPOCH":"2026-07-18T04:34:07.275072","CLASSIFICATION_TYPE":"U","MEAN_MOTION":15.21209532,"ECCENTRICITY":0.00029542,"INCLINATION":97.4208,"RA_OF_ASC_NODE":272.6365,"ARG_OF_PERICENTER":154.6901,"MEAN_ANOMALY":205.448,"EPHEMERIS_TYPE":0,"NORAD_CAT_ID":66736,"ELEMENT_SET_NO":999,"REV_AT_EPOCH":3515,"BSTAR":0.00013863401,"MEAN_MOTION_DOT":0.00003024,"MEAN_MOTION_DDOT":0}]}
